IRIDIUM 150             
1 43257U 18030J   24278.83623397  .00000671  00000+0  23245-3 0  9999
2 43257  86.4045 189.7336 0002407  89.3458 270.8013 14.34217567341242
IRIDIUM 143             
1 43258U 18030K   24279.30559084  .00001508  00000+0  53133-3 0  9993
2 43258  86.4049 189.6055 0002684  88.4196 271.7307 14.34216137341271
IRIDIUM 161             
1 43478U 18047C   24279.48997881  .00000852  00000+0  24741-3 0  9999
2 43478  86.4540 347.4568 0001907  95.8587 264.2831 14.43261551335752
IRIDIUM 152             
1 43479U 18047D   24278.72016411  .00000067  00000+0  17009-4 0  9995
2 43479  86.4014 347.6372 0002114  95.6016 264.5421 14.34217223333551
IRIDIUM 147             
1 43480U 18047E   24279.42418112  .00001504  00000+0  52977-3 0  9998
2 43480  86.4017 347.3377 0001894  90.4890 269.6522 14.34217225333656
IRIDIUM 110             
1 43481U 18047F   24279.50030186  .00000256  00000+0  84470-4 0  9996
2 43481  86.4016 347.3818 0001609  94.1502 265.9878 14.34218430333653
IRIDIUM 162             
1 43482U 18047G   24279.48365690  .00002228  00000+0  65609-3 0  9998
2 43482  86.4538 347.3581 0001698  93.0150 267.1245 14.43280796335743
IRIDIUM 160             
1 43569U 18061A   24278.53914622  .00000795  00000+0  27684-3 0  9998
2 43569  86.3962 316.1654 0002080  88.5124 271.6310 14.34214486324418
